TIANMU-1 07             
1 57399U 23101A   26065.57454230  .00008352  00000+0  29795-3 0  9991
2 57399  97.2728 118.5929 0004609 142.4105 217.7458 15.29118809145964
STARLINK-30820          
1 58190U 23167R   26068.52241888 -.00000474  00000+0 -77075-5 0  9999
2 58190  42.9985 143.9823 0000351 241.3107 118.7709 15.27569171130965
